[{"OBJECT_NAME":"STARLINK-1274","OBJECT_ID":"2020-019AD","EPOCH":"2026-03-09T11:07:49.598400","MEAN_MOTION":15.47008118,"ECCENTRICITY":0.00031219,"INCLINATION":53.0276,"RA_OF_ASC_NODE":104.0147,"ARG_OF_PERICENTER":240.3604,"MEAN_ANOMALY":119.7091,"EPHEMERIS_TYPE":0,"CLASSIFICATION_TYPE":"U","NORAD_CAT_ID":45387,"ELEMENT_SET_NO":999,"REV_AT_EPOCH":33058,"BSTAR":0.0015166091,"MEAN_MOTION_DOT":0.00078205,"MEAN_MOTION_DDOT":0},{"OBJECT_NAME":"YAM-3","OBJECT_ID":"2021-059AN","EPOCH":"2026-03-09T22:25:33.474144","MEAN_MOTION":15.4615473,"ECCENTRICITY":0.00051411,"INCLINATION":97.6977,"RA_OF_ASC_NODE":249.5762,"ARG_OF_PERICENTER":6.9981,"MEAN_ANOMALY":353.1338,"EPHEMERIS_TYPE":0,"CLASSIFICATION_TYPE":"U","NORAD_CAT_ID":48915,"ELEMENT_SET_NO":999,"REV_AT_EPOCH":26164,"BSTAR":0.00032706033,"MEAN_MOTION_DOT":0.00015961,"MEAN_MOTION_DDOT":0}]
